{"type": "FeatureCollection", "features": [ {"type": "Feature", "properties": {"norad_id": 64901, "name": "CO3D 4", "group": "resource", "lat": 79.95903044416275, "lon": 12.143339639134462, "alt_km": 498.3367576061746, "timestamp": "2025-12-09T05:43:20.385859+00:00", "meta": {"OBJECT_NAME": "CO3D 4", "OBJECT_ID": "2025-156C", "EPOCH": "2025-12-08T19:52:44.548896", "MEAN_MOTION": 15.20203235, "ECCENTRICITY": 0.0001046, "INCLINATION": 97.434, "RA_OF_ASC_NODE": 59.2517, "ARG_OF_PERICENTER": 219.5308, "MEAN_ANOMALY": 140.5851, "EPHEMERIS_TYPE": 0, "CLASSIFICATION_TYPE": "U", "NORAD_CAT_ID": 64901, "ELEMENT_SET_NO": 999, "REV_AT_EPOCH": 2061, "BSTAR": 0.0004753, "MEAN_MOTION_DOT": 0.00010236, "MEAN_MOTION_DDOT": 0}, "tle": {"line1": "1 64901U 25156C   25342.82829339  .00010236  00000+0  47530-3 0  9992", "line2": "2 64901  97.4340  59.2517 0001046 219.5308 140.5851 15.20203235 20613"}}, "geometry": {"type": "Point", "coordinates": [12.143339639134462, 79.95903044416275]}}, {"type": "Feature", "properties": {"norad_id": 64902, "name": "CO3D 2", "group": "resource", "lat": -81.39663695776572, "lon": 179.89686201537015, "alt_km": 513.2122793051822, "timestamp": "2025-12-09T05:43:20.385871+00:00", "meta": {"OBJECT_NAME": "CO3D 2", "OBJECT_ID": "2025-156D", "EPOCH": "2025-12-08T20:39:30.643776", "MEAN_MOTION": 15.20210142, "ECCENTRICITY": 9.57e-05, "INCLINATION": 97.434, "RA_OF_ASC_NODE": 59.1824, "ARG_OF_PERICENTER": 90.1766, "MEAN_ANOMALY": 269.9578, "EPHEMERIS_TYPE": 0, "CLASSIFICATION_TYPE": "U", "NORAD_CAT_ID": 64902, "ELEMENT_SET_NO": 999, "REV_AT_EPOCH": 2061, "BSTAR": 0.00040961, "MEAN_MOTION_DOT": 8.812e-05, "MEAN_MOTION_DDOT": 0}, "tle": {"line1": "1 64902U 25156D   25342.86077134  .00008812  00000+0  40961-3 0  9993", "line2": "2 64902  97.4340  59.1824 0000957  90.1766 269.9578 15.20210142 20612"}}, "geometry": {"type": "Point", "coordinates": [179.89686201537015, -81.39663695776572]}}, {"type": "Feature", "properties": {"norad_id": 64903, "name": "CO3D 1", "group": "resource", "lat": -80.93416304309874, "lon": -175.36263735463143, "alt_km": 513.2410998585392, "timestamp": "2025-12-09T05:43:20.385881+00:00", "meta": {"OBJECT_NAME": "CO3D 1", "OBJECT_ID": "2025-156E", "EPOCH": "2025-12-08T20:39:44.072928", "MEAN_MOTION": 15.20198272, "ECCENTRICITY": 9.72e-05, "INCLINATION": 97.4341, "RA_OF_ASC_NODE": 59.1825, "ARG_OF_PERICENTER": 98.9242, "MEAN_ANOMALY": 261.2103, "EPHEMERIS_TYPE": 0, "CLASSIFICATION_TYPE": "U", "NORAD_CAT_ID": 64903, "ELEMENT_SET_NO": 999, "REV_AT_EPOCH": 2061, "BSTAR": 0.00041289, "MEAN_MOTION_DOT": 8.88e-05, "MEAN_MOTION_DDOT": 0}, "tle": {"line1": "1 64903U 25156E   25342.86092677  .00008880  00000+0  41289-3 0  9992", "line2": "2 64903  97.4341  59.1825 0000972  98.9242 261.2103 15.20198272 20615"}}, "geometry": {"type": "Point", "coordinates": [-175.36263735463143, -80.93416304309874]}}, {"type": "Feature", "properties": {"norad_id": 66514, "name": "SENTINEL-6B", "group": "resource", "lat": 34.02875417787726, "lon": -27.75475967371547, "alt_km": 1331.6211655457182, "timestamp": "2025-12-09T05:43:20.385891+00:00", "meta": {"OBJECT_NAME": "SENTINEL-6B", "OBJECT_ID": "2025-264A", "EPOCH": "2025-12-08T19:38:09.449952", "MEAN_MOTION": 12.8403201, "ECCENTRICITY": 0.0021041, "INCLINATION": 66.0385, "RA_OF_ASC_NODE": 170.5961, "ARG_OF_PERICENTER": 268.265, "MEAN_ANOMALY": 91.5957, "EPHEMERIS_TYPE": 0, "CLASSIFICATION_TYPE": "U", "NORAD_CAT_ID": 66514, "ELEMENT_SET_NO": 999, "REV_AT_EPOCH": 278, "BSTAR": 0.00012295, "MEAN_MOTION_DOT": -3.2e-07, "MEAN_MOTION_DDOT": 0}, "tle": {"line1": "1 66514U 25264A   25342.81816493 -.00000032  00000+0  12295-3 0  9994", "line2": "2 66514  66.0385 170.5961 0021041 268.2650  91.5957 12.84032010  2782"}}, "geometry": {"type": "Point", "coordinates": [-27.75475967371547, 34.02875417787726]}}]}